JILIN-1 KUANFU 01       
1 45016U 20003A   26204.24909946  .00002373  00000+0  14619-3 0  9996
2 45016  97.5011 277.5015 0010072 169.0079 191.1373 15.10899275360775
JILIN-1 KUANFU-01B      
1 49003U 21061A   26204.29347591  .00002862  00000+0  18082-3 0  9999
2 49003  97.5193 279.8144 0005406 303.0184  57.0525 15.09834534278790
JILIN-1 KUANFU 01C      
1 52443U 22048A   26204.28648306  .00003095  00000+0  19567-3 0  9992
2 52443  97.5244 280.8001 0018054 191.3760 168.7063 15.09631764232645
JILIN-1 KUANFU 02A      
1 57696U 23127A   26204.23300972  .00003789  00000+0  23139-3 0  9995
2 57696  97.5561 297.5978 0010903 206.7033 153.3637 15.10858481161073
JILIN-01 KUANFU 02B 1   
1 61189U 24169A   26204.25610354  .00003820  00000+0  24496-3 0  9997
2 61189  97.5571 293.2274 0001036 285.5810  74.5305 15.09096957101264
JILIN-01 KUANFU 02B 2   
1 61190U 24169B   26204.23592637  .00003223  00000+0  20753-3 0  9999
2 61190  97.5565 292.5912 0004921 241.9394 118.1338 15.09058970101263
JILIN-01 KUANFU 02B 3   
1 61191U 24169C   26204.24467948  .00003551  00000+0  22758-3 0  9998
2 61191  97.5562 293.0328 0013852 177.4968 182.6332 15.09099164101261
JILIN-01 KUANFU 02B 4   
1 61192U 24169D   26204.27983044  .00003646  00000+0  23354-3 0  9990
2 61192  97.5519 292.5898 0014599 137.9866 222.2485 15.09083713101271
JILIN-01 KUANFU 02B 5   
1 61193U 24169E   26204.26670254  .00004258  00000+0  27191-3 0  9999
2 61193  97.5570 293.3791 0013894 160.8843 199.2910 15.09114535101270
JILIN-01 KUANFU 02B 6   
1 61194U 24169F   26204.29054649  .00002991  00000+0  19230-3 0  9994
2 61194  97.5549 293.2926 0016344 192.3348 167.7483 15.09073732101288
