{"fetched_at":"2026-07-23T17:55:37.448Z","source":"https://celestrak.org/NORAD/elements/gp.php?NAME=JILIN&FORMAT=JSON","constellation":"jilin-1-kuanfu","records":[{"OBJECT_NAME":"JILIN-1 KUANFU 01","OBJECT_ID":"2020-003A","EPOCH":"2026-07-23T05:58:42.193344","CLASSIFICATION_TYPE":"U","MEAN_MOTION":15.10899275,"ECCENTRICITY":0.00100728,"INCLINATION":97.5011,"RA_OF_ASC_NODE":277.5015,"ARG_OF_PERICENTER":169.0079,"MEAN_ANOMALY":191.1373,"EPHEMERIS_TYPE":0,"NORAD_CAT_ID":45016,"ELEMENT_SET_NO":999,"REV_AT_EPOCH":36077,"BSTAR":0.00014618729,"MEAN_MOTION_DOT":0.00002373,"MEAN_MOTION_DDOT":0},{"OBJECT_NAME":"JILIN-1 KUANFU-01B","OBJECT_ID":"2021-061A","EPOCH":"2026-07-23T07:02:36.318624","CLASSIFICATION_TYPE":"U","MEAN_MOTION":15.09834534,"ECCENTRICITY":0.0005406,"INCLINATION":97.5193,"RA_OF_ASC_NODE":279.8144,"ARG_OF_PERICENTER":303.0184,"MEAN_ANOMALY":57.0525,"EPHEMERIS_TYPE":0,"NORAD_CAT_ID":49003,"ELEMENT_SET_NO":999,"REV_AT_EPOCH":27879,"BSTAR":0.0001808212,"MEAN_MOTION_DOT":0.00002862,"MEAN_MOTION_DDOT":0},{"OBJECT_NAME":"JILIN-1 KUANFU 01C","OBJECT_ID":"2022-048A","EPOCH":"2026-07-23T06:52:32.136384","CLASSIFICATION_TYPE":"U","MEAN_MOTION":15.09631764,"ECCENTRICITY":0.00180541,"INCLINATION":97.5244,"RA_OF_ASC_NODE":280.8001,"ARG_OF_PERICENTER":191.376,"MEAN_ANOMALY":168.7063,"EPHEMERIS_TYPE":0,"NORAD_CAT_ID":52443,"ELEMENT_SET_NO":999,"REV_AT_EPOCH":23264,"BSTAR":0.00019567385,"MEAN_MOTION_DOT":0.00003095,"MEAN_MOTION_DDOT":0},{"OBJECT_NAME":"JILIN-1 KUANFU 02A","OBJECT_ID":"2023-127A","EPOCH":"2026-07-23T05:35:32.039808","CLASSIFICATION_TYPE":"U","MEAN_MOTION":15.10858481,"ECCENTRICITY":0.00109035,"INCLINATION":97.5561,"RA_OF_ASC_NODE":297.5978,"ARG_OF_PERICENTER":206.7033,"MEAN_ANOMALY":153.3637,"EPHEMERIS_TYPE":0,"NORAD_CAT_ID":57696,"ELEMENT_SET_NO":999,"REV_AT_EPOCH":16107,"BSTAR":0.00023139138,"MEAN_MOTION_DOT":0.00003789,"MEAN_MOTION_DDOT":0},{"OBJECT_NAME":"JILIN-01 KUANFU 02B 1","OBJECT_ID":"2024-169A","EPOCH":"2026-07-23T06:08:47.345856","CLASSIFICATION_TYPE":"U","MEAN_MOTION":15.09096957,"ECCENTRICITY":0.00010366,"INCLINATION":97.5571,"RA_OF_ASC_NODE":293.2274,"ARG_OF_PERICENTER":285.581,"MEAN_ANOMALY":74.5305,"EPHEMERIS_TYPE":0,"NORAD_CAT_ID":61189,"ELEMENT_SET_NO":999,"REV_AT_EPOCH":10126,"BSTAR":0.00024495794,"MEAN_MOTION_DOT":0.0000382,"MEAN_MOTION_DDOT":0},{"OBJECT_NAME":"JILIN-01 KUANFU 02B 2","OBJECT_ID":"2024-169B","EPOCH":"2026-07-23T05:39:44.038368","CLASSIFICATION_TYPE":"U","MEAN_MOTION":15.0905897,"ECCENTRICITY":0.00049216,"INCLINATION":97.5565,"RA_OF_ASC_NODE":292.5912,"ARG_OF_PERICENTER":241.9394,"MEAN_ANOMALY":118.1338,"EPHEMERIS_TYPE":0,"NORAD_CAT_ID":61190,"ELEMENT_SET_NO":999,"REV_AT_EPOCH":10126,"BSTAR":0.00020752672,"MEAN_MOTION_DOT":0.00003223,"MEAN_MOTION_DDOT":0},{"OBJECT_NAME":"JILIN-01 KUANFU 02B 3","OBJECT_ID":"2024-169C","EPOCH":"2026-07-23T05:52:20.307072","CLASSIFICATION_TYPE":"U","MEAN_MOTION":15.09099164,"ECCENTRICITY":0.00138529,"INCLINATION":97.5562,"RA_OF_ASC_NODE":293.0328,"ARG_OF_PERICENTER":177.4968,"MEAN_ANOMALY":182.6332,"EPHEMERIS_TYPE":0,"NORAD_CAT_ID":61191,"ELEMENT_SET_NO":999,"REV_AT_EPOCH":10126,"BSTAR":0.00022757876,"MEAN_MOTION_DOT":0.00003551,"MEAN_MOTION_DDOT":0},{"OBJECT_NAME":"JILIN-01 KUANFU 02B 4","OBJECT_ID":"2024-169D","EPOCH":"2026-07-23T06:42:57.350016","CLASSIFICATION_TYPE":"U","MEAN_MOTION":15.09083713,"ECCENTRICITY":0.00145995,"INCLINATION":97.5519,"RA_OF_ASC_NODE":292.5898,"ARG_OF_PERICENTER":137.9866,"MEAN_ANOMALY":222.2485,"EPHEMERIS_TYPE":0,"NORAD_CAT_ID":61192,"ELEMENT_SET_NO":999,"REV_AT_EPOCH":10127,"BSTAR":0.00023353901,"MEAN_MOTION_DOT":0.00003646,"MEAN_MOTION_DDOT":0},{"OBJECT_NAME":"JILIN-01 KUANFU 02B 5","OBJECT_ID":"2024-169E","EPOCH":"2026-07-23T06:24:03.099456","CLASSIFICATION_TYPE":"U","MEAN_MOTION":15.09114535,"ECCENTRICITY":0.00138944,"INCLINATION":97.557,"RA_OF_ASC_NODE":293.3791,"ARG_OF_PERICENTER":160.8843,"MEAN_ANOMALY":199.291,"EPHEMERIS_TYPE":0,"NORAD_CAT_ID":61193,"ELEMENT_SET_NO":999,"REV_AT_EPOCH":10127,"BSTAR":0.00027191312,"MEAN_MOTION_DOT":0.00004258,"MEAN_MOTION_DDOT":0},{"OBJECT_NAME":"JILIN-01 KUANFU 02B 6","OBJECT_ID":"2024-169F","EPOCH":"2026-07-23T06:58:23.216736","CLASSIFICATION_TYPE":"U","MEAN_MOTION":15.09073732,"ECCENTRICITY":0.00163447,"INCLINATION":97.5549,"RA_OF_ASC_NODE":293.2926,"ARG_OF_PERICENTER":192.3348,"MEAN_ANOMALY":167.7483,"EPHEMERIS_TYPE":0,"NORAD_CAT_ID":61194,"ELEMENT_SET_NO":999,"REV_AT_EPOCH":10128,"BSTAR":0.00019230407,"MEAN_MOTION_DOT":0.00002991,"MEAN_MOTION_DDOT":0}]}
